{"type": "FeatureCollection", "features": [ {"type": "Feature", "properties": {"norad_id": 33867, "name": "IRIDIUM 33 DEB", "group": "iridium-33-debris", "lat": -85.53750288751199, "lon": -137.46317629274532, "alt_km": 360.3177883337439, "timestamp": "2025-12-16T19:34:24.652856+00:00", "meta": {"OBJECT_NAME": "IRIDIUM 33 DEB", "OBJECT_ID": "1997-051AL", "EPOCH": "2025-12-15T18:01:58.391328", "MEAN_MOTION": 15.73399907, "ECCENTRICITY": 0.0013557, "INCLINATION": 86.3645, "RA_OF_ASC_NODE": 348.5349, "ARG_OF_PERICENTER": 90.6354, "MEAN_ANOMALY": 269.6472, "EPHEMERIS_TYPE": 0, "CLASSIFICATION_TYPE": "U", "NORAD_CAT_ID": 33867, "ELEMENT_SET_NO": 999, "REV_AT_EPOCH": 89558, "BSTAR": 0.0061851426, "MEAN_MOTION_DOT": 0.00940589, "MEAN_MOTION_DDOT": 0}, "tle": {"line1": "1 33867U 97051AL  25349.75137027  .00940589  00000+0  61851-2 0  9991", "line2": "2 33867  86.3645 348.5349 0013557  90.6354 269.6472 15.73399907895589"}}, "geometry": {"type": "Point", "coordinates": [-137.46317629274532, -85.53750288751199]}}, {"type": "Feature", "properties": {"norad_id": 33870, "name": "IRIDIUM 33 DEB", "group": "iridium-33-debris", "lat": -71.65952856171056, "lon": 45.48872427501459, "alt_km": 755.0538123343476, "timestamp": "2025-12-16T19:34:24.652867+00:00", "meta": {"OBJECT_NAME": "IRIDIUM 33 DEB", "OBJECT_ID": "1997-051AP", "EPOCH": "2025-12-15T16:25:27.331104", "MEAN_MOTION": 14.45868605, "ECCENTRICITY": 0.00218243, "INCLINATION": 86.3749, "RA_OF_ASC_NODE": 56.9985, "ARG_OF_PERICENTER": 168.4927, "MEAN_ANOMALY": 354.9427, "EPHEMERIS_TYPE": 0, "CLASSIFICATION_TYPE": "U", "NORAD_CAT_ID": 33870, "ELEMENT_SET_NO": 999, "REV_AT_EPOCH": 88179, "BSTAR": 0.00053275063, "MEAN_MOTION_DOT": 1.917e-05, "MEAN_MOTION_DDOT": 0}, "tle": {"line1": "1 33870U 97051AP  25349.68434411  .00001917  00000+0  53275-3 0  9999", "line2": "2 33870  86.3749  56.9985 0021824 168.4927 354.9427 14.45868605881790"}}, "geometry": {"type": "Point", "coordinates": [45.48872427501459, -71.65952856171056]}}, {"type": "Feature", "properties": {"norad_id": 33881, "name": "IRIDIUM 33 DEB", "group": "iridium-33-debris", "lat": -46.0210119354457, "lon": 101.21514892885963, "alt_km": 749.5280047952238, "timestamp": "2025-12-16T19:34:24.652879+00:00", "meta": {"OBJECT_NAME": "IRIDIUM 33 DEB", "OBJECT_ID": "1997-051BA", "EPOCH": "2025-12-15T19:37:15.876768", "MEAN_MOTION": 14.56633936, "ECCENTRICITY": 0.00615251, "INCLINATION": 86.3857, "RA_OF_ASC_NODE": 105.4046, "ARG_OF_PERICENTER": 164.6963, "MEAN_ANOMALY": 318.7937, "EPHEMERIS_TYPE": 0, "CLASSIFICATION_TYPE": "U", "NORAD_CAT_ID": 33881, "ELEMENT_SET_NO": 999, "REV_AT_EPOCH": 87545, "BSTAR": 0.0012951188, "MEAN_MOTION_DOT": 5.948e-05, "MEAN_MOTION_DDOT": 0}, "tle": {"line1": "1 33881U 97051BA  25349.81754487  .00005948  00000+0  12951-2 0  9997", "line2": "2 33881  86.3857 105.4046 0061525 164.6963 318.7937 14.56633936875459"}}, "geometry": {"type": "Point", "coordinates": [101.21514892885963, -46.0210119354457]}}, {"type": "Feature", "properties": {"norad_id": 33884, "name": "IRIDIUM 33 DEB", "group": "iridium-33-debris", "lat": -25.822437011489907, "lon": -170.26057342511808, "alt_km": 644.4180573316771, "timestamp": "2025-12-16T19:34:24.652890+00:00", "meta": {"OBJECT_NAME": "IRIDIUM 33 DEB", "OBJECT_ID": "1997-051BD", "EPOCH": "2025-12-15T20:25:31.255680", "MEAN_MOTION": 14.77493493, "ECCENTRICITY": 0.00093117, "INCLINATION": 86.3697, "RA_OF_ASC_NODE": 8.4142, "ARG_OF_PERICENTER": 311.8512, "MEAN_ANOMALY": 167.1781, "EPHEMERIS_TYPE": 0, "CLASSIFICATION_TYPE": "U", "NORAD_CAT_ID": 33884, "ELEMENT_SET_NO": 999, "REV_AT_EPOCH": 88893, "BSTAR": 0.00087855723, "MEAN_MOTION_DOT": 6.291e-05, "MEAN_MOTION_DDOT": 0}, "tle": {"line1": "1 33884U 97051BD  25349.85105620  .00006291  00000+0  87856-3 0  9992", "line2": "2 33884  86.3697   8.4142 0009311 311.8512 167.1781 14.77493493888939"}}, "geometry": {"type": "Point", "coordinates": [-170.26057342511808, -25.822437011489907]}}, {"type": "Feature", "properties": {"norad_id": 33886, "name": "IRIDIUM 33 DEB", "group": "iridium-33-debris", "lat": -64.60113866810165, "lon": -106.83097343816281, "alt_km": 770.3154777782402, "timestamp": "2025-12-16T19:34:24.652901+00:00", "meta": {"OBJECT_NAME": "IRIDIUM 33 DEB", "OBJECT_ID": "1997-051BF", "EPOCH": "2025-12-15T23:10:27.057216", "MEAN_MOTION": 14.36055791, "ECCENTRICITY": 0.00125362, "INCLINATION": 86.383, "RA_OF_ASC_NODE": 65.8711, "ARG_OF_PERICENTER": 229.9815, "MEAN_ANOMALY": 303.3561, "EPHEMERIS_TYPE": 0, "CLASSIFICATION_TYPE": "U", "NORAD_CAT_ID": 33886, "ELEMENT_SET_NO": 999, "REV_AT_EPOCH": 88098, "BSTAR": 0.00018200983, "MEAN_MOTION_DOT": 5.49e-06, "MEAN_MOTION_DDOT": 0}, "tle": {"line1": "1 33886U 97051BF  25349.96559094  .00000549  00000+0  18201-3 0  9992", "line2": "2 33886  86.3830  65.8711 0012536 229.9815 303.3561 14.36055791880984"}}, "geometry": {"type": "Point", "coordinates": [-106.83097343816281, -64.60113866810165]}}, {"type": "Feature", "properties": {"norad_id": 33887, "name": "IRIDIUM 33 DEB", "group": "iridium-33-debris", "lat": -18.193091739090015, "lon": -177.14688056291098, "alt_km": 769.4691254508216, "timestamp": "2025-12-16T19:34:24.652912+00:00", "meta": {"OBJECT_NAME": "IRIDIUM 33 DEB", "OBJECT_ID": "1997-051BG", "EPOCH": "2025-12-15T19:49:33.280896", "MEAN_MOTION": 14.37223673, "ECCENTRICITY": 0.00047292, "INCLINATION": 86.3043, "RA_OF_ASC_NODE": 2.0622, "ARG_OF_PERICENTER": 213.483, "MEAN_ANOMALY": 268.2905, "EPHEMERIS_TYPE": 0, "CLASSIFICATION_TYPE": "U", "NORAD_CAT_ID": 33887, "ELEMENT_SET_NO": 999, "REV_AT_EPOCH": 88209, "BSTAR": 0.0001410094, "MEAN_MOTION_DOT": 4.39e-06, "MEAN_MOTION_DDOT": 0}, "tle": {"line1": "1 33887U 97051BG  25349.82607964  .00000439  00000+0  14101-3 0  9991", "line2": "2 33887  86.3043   2.0622 0004729 213.4830 268.2905 14.37223673882097"}}, "geometry": {"type": "Point", "coordinates": [-177.14688056291098, -18.193091739090015]}}, {"type": "Feature", "properties": {"norad_id": 33953, "name": "IRIDIUM 33 DEB", "group": "iridium-33-debris", "lat": -40.96204389597883, "lon": 48.86438373172892, "alt_km": 723.3186752804568, "timestamp": "2025-12-16T19:34:24.652923+00:00", "meta": {"OBJECT_NAME": "IRIDIUM 33 DEB", "OBJECT_ID": "1997-051BN", "EPOCH": "2025-12-15T10:48:32.661792", "MEAN_MOTION": 14.55354626, "ECCENTRICITY": 0.0018265, "INCLINATION": 86.3848, "RA_OF_ASC_NODE": 52.603, "ARG_OF_PERICENTER": 94.655, "MEAN_ANOMALY": 276.5427, "EPHEMERIS_TYPE": 0, "CLASSIFICATION_TYPE": "U", "NORAD_CAT_ID": 33953, "ELEMENT_SET_NO": 999, "REV_AT_EPOCH": 88343, "BSTAR": 0.00078160198, "MEAN_MOTION_DOT": 3.418e-05, "MEAN_MOTION_DDOT": 0}, "tle": {"line1": "1 33953U 97051BN  25349.45037803  .00003418  00000+0  78160-3 0  9998", "line2": "2 33953  86.3848  52.6030 0018265  94.6550 276.5427 14.55354626883439"}}, "geometry": {"type": "Point", "coordinates": [48.86438373172892, -40.96204389597883]}}, {"type": "Feature", "properties": {"norad_id": 33960, "name": "IRIDIUM 33 DEB", "group": "iridium-33-debris", "lat": -22.53637356431467, "lon": 109.15058463418445, "alt_km": 622.3246452991498, "timestamp": "2025-12-16T19:34:24.652934+00:00", "meta": {"OBJECT_NAME": "IRIDIUM 33 DEB", "OBJECT_ID": "1997-051BV", "EPOCH": "2025-12-15T20:16:06.180672", "MEAN_MOTION": 14.85357541, "ECCENTRICITY": 0.00074313, "INCLINATION": 86.2529, "RA_OF_ASC_NODE": 288.0502, "ARG_OF_PERICENTER": 57.1848, "MEAN_ANOMALY": 356.1454, "EPHEMERIS_TYPE": 0, "CLASSIFICATION_TYPE": "U", "NORAD_CAT_ID": 33960, "ELEMENT_SET_NO": 999, "REV_AT_EPOCH": 88913, "BSTAR": 0.0020732514, "MEAN_MOTION_DOT": 0.00017892, "MEAN_MOTION_DDOT": 0}, "tle": {"line1": "1 33960U 97051BV  25349.84451598  .00017892  00000+0  20733-2 0  9993", "line2": "2 33960  86.2529 288.0502 0007431  57.1848 356.1454 14.85357541889138"}}, "geometry": {"type": "Point", "coordinates": [109.15058463418445, -22.53637356431467]}}, {"type": "Feature", "properties": {"norad_id": 33966, "name": "IRIDIUM 33 DEB", "group": "iridium-33-debris", "lat": 0.9227861499044625, "lon": 44.33675764620517, "alt_km": 735.3891773431988, "timestamp": "2025-12-16T19:34:24.652944+00:00", "meta": {"OBJECT_NAME": "IRIDIUM 33 DEB", "OBJECT_ID": "1997-051CB", "EPOCH": "2025-12-15T22:51:09.786240", "MEAN_MOTION": 14.49607788, "ECCENTRICITY": 0.00078112, "INCLINATION": 86.3927, "RA_OF_ASC_NODE": 44.6489, "ARG_OF_PERICENTER": 177.5484, "MEAN_ANOMALY": 0.8363, "EPHEMERIS_TYPE": 0, "CLASSIFICATION_TYPE": "U", "NORAD_CAT_ID": 33966, "ELEMENT_SET_NO": 999, "REV_AT_EPOCH": 88488, "BSTAR": 0.00039929848, "MEAN_MOTION_DOT": 1.553e-05, "MEAN_MOTION_DDOT": 0}, "tle": {"line1": "1 33966U 97051CB  25349.95219660  .00001553  00000+0  39930-3 0  9990", "line2": "2 33966  86.3927  44.6489 0007811 177.5484   0.8363 14.49607788884882"}}, "geometry": {"type": "Point", "coordinates": [44.33675764620517, 0.9227861499044625]}}, {"type": "Feature", "properties": {"norad_id": 34071, "name": "IRIDIUM 33 DEB", "group": "iridium-33-debris", "lat": 65.20102526577047, "lon": 24.007672731271736, "alt_km": 714.9548734215796, "timestamp": "2025-12-16T19:34:24.652955+00:00", "meta": {"OBJECT_NAME": "IRIDIUM 33 DEB", "OBJECT_ID": "1997-051CE", "EPOCH": "2025-12-15T20:04:38.262144", "MEAN_MOTION": 14.49479192, "ECCENTRICITY": 0.00100068, "INCLINATION": 86.3457, "RA_OF_ASC_NODE": 16.4826, "ARG_OF_PERICENTER": 99.5033, "MEAN_ANOMALY": 260.7302, "EPHEMERIS_TYPE": 0, "CLASSIFICATION_TYPE": "U", "NORAD_CAT_ID": 34071, "ELEMENT_SET_NO": 999, "REV_AT_EPOCH": 88379, "BSTAR": 0.00045761963, "MEAN_MOTION_DOT": 1.773e-05, "MEAN_MOTION_DDOT": 0}, "tle": {"line1": "1 34071U 97051CE  25349.83655396  .00001773  00000+0  45762-3 0  9999", "line2": "2 34071  86.3457  16.4826 0010006  99.5033 260.7302 14.49479192883798"}}, "geometry": {"type": "Point", "coordinates": [24.007672731271736, 65.20102526577047]}}]}